CCSDS_OMM_VERS = 2.0
CREATION_DATE  = 
ORIGINATOR     = 

OBJECT_NAME    = SL-16 R/B
OBJECT_ID      = 1998-043G
CENTER_NAME    = EARTH
REF_FRAME      = TEME
TIME_SYSTEM    = UTC
MEAN_ELEMENT_THEORY = SGP/SGP4

EPOCH          = 2026-02-05T21:03:22.188960
MEAN_MOTION    = 14.26041992
ECCENTRICITY   = .001088
INCLINATION    = 98.8203
RA_OF_ASC_NODE = 350.0262
ARG_OF_PERICENTER = 105.0710
MEAN_ANOMALY   = 255.1674

EPHEMERIS_TYPE = 0
CLASSIFICATION_TYPE = U
NORAD_CAT_ID   = 25400
ELEMENT_SET_NO = 999
REV_AT_EPOCH   = 43445
BSTAR          = .66582E-4
MEAN_MOTION_DOT = .114E-5
MEAN_MOTION_DDOT = 0

CCSDS_OMM_VERS = 2.0
CREATION_DATE  = 
ORIGINATOR     = 

OBJECT_NAME    = SL-16 R/B
OBJECT_ID      = 1998-045B
CENTER_NAME    = EARTH
REF_FRAME      = TEME
TIME_SYSTEM    = UTC
MEAN_ELEMENT_THEORY = SGP/SGP4

EPOCH          = 2026-02-06T00:00:13.827456
MEAN_MOTION    = 14.16185391
ECCENTRICITY   = .00052589
INCLINATION    = 71.0085
RA_OF_ASC_NODE = 248.2164
ARG_OF_PERICENTER = 67.2212
MEAN_ANOMALY   = 292.9467

EPHEMERIS_TYPE = 0
CLASSIFICATION_TYPE = U
NORAD_CAT_ID   = 25407
ELEMENT_SET_NO = 999
REV_AT_EPOCH   = 42261
BSTAR          = -.51121308E-4
MEAN_MOTION_DOT = -.149E-5
MEAN_MOTION_DDOT = 0

CCSDS_OMM_VERS = 2.0
CREATION_DATE  = 
ORIGINATOR     = 

OBJECT_NAME    = ISS (ZARYA)
OBJECT_ID      = 1998-067A
CENTER_NAME    = EARTH
REF_FRAME      = TEME
TIME_SYSTEM    = UTC
MEAN_ELEMENT_THEORY = SGP/SGP4

EPOCH          = 2026-02-06T05:05:23.180640
MEAN_MOTION    = 15.48432747
ECCENTRICITY   = .0011199
INCLINATION    = 51.6316
RA_OF_ASC_NODE = 227.9611
ARG_OF_PERICENTER = 69.2605
MEAN_ANOMALY   = 290.9582

EPHEMERIS_TYPE = 0
CLASSIFICATION_TYPE = U
NORAD_CAT_ID   = 25544
ELEMENT_SET_NO = 999
REV_AT_EPOCH   = 55145
BSTAR          = .24775E-3
MEAN_MOTION_DOT = .12979E-3
MEAN_MOTION_DDOT = 0

CCSDS_OMM_VERS = 2.0
CREATION_DATE  = 
ORIGINATOR     = 

OBJECT_NAME    = CZ-4B R/B
OBJECT_ID      = 1999-025C
CENTER_NAME    = EARTH
REF_FRAME      = TEME
TIME_SYSTEM    = UTC
MEAN_ELEMENT_THEORY = SGP/SGP4

EPOCH          = 2026-02-06T02:54:18.981792
MEAN_MOTION    = 14.18259010
ECCENTRICITY   = .00381584
INCLINATION    = 98.6688
RA_OF_ASC_NODE = 82.1414
ARG_OF_PERICENTER = 76.2960
MEAN_ANOMALY   = 297.9881

EPHEMERIS_TYPE = 0
CLASSIFICATION_TYPE = U
NORAD_CAT_ID   = 25732
ELEMENT_SET_NO = 999
REV_AT_EPOCH   = 38369
BSTAR          = .51714849E-4
MEAN_MOTION_DOT = .64E-6
MEAN_MOTION_DDOT = 0

CCSDS_OMM_VERS = 2.0
CREATION_DATE  = 
ORIGINATOR     = 

OBJECT_NAME    = OKEAN-O
OBJECT_ID      = 1999-039A
CENTER_NAME    = EARTH
REF_FRAME      = TEME
TIME_SYSTEM    = UTC
MEAN_ELEMENT_THEORY = SGP/SGP4

EPOCH          = 2026-02-06T03:40:09.562080
MEAN_MOTION    = 14.80283085
ECCENTRICITY   = .00019025
INCLINATION    = 97.9511
RA_OF_ASC_NODE = 97.3541
ARG_OF_PERICENTER = 88.2198
MEAN_ANOMALY   = 271.9232

EPHEMERIS_TYPE = 0
CLASSIFICATION_TYPE = U
NORAD_CAT_ID   = 25860
ELEMENT_SET_NO = 999
REV_AT_EPOCH   = 42972
BSTAR          = .13767097E-3
MEAN_MOTION_DOT = .996E-5
MEAN_MOTION_DDOT = 0

CCSDS_OMM_VERS = 2.0
CREATION_DATE  = 
ORIGINATOR     = 

OBJECT_NAME    = SL-16 R/B
OBJECT_ID      = 1999-039B
CENTER_NAME    = EARTH
REF_FRAME      = TEME
TIME_SYSTEM    = UTC
MEAN_ELEMENT_THEORY = SGP/SGP4

EPOCH          = 2026-02-06T03:54:06.416064
MEAN_MOTION    = 14.81686441
ECCENTRICITY   = .00148345
INCLINATION    = 98.0033
RA_OF_ASC_NODE = 96.2949
ARG_OF_PERICENTER = 5.2630
MEAN_ANOMALY   = 354.8736

EPHEMERIS_TYPE = 0
CLASSIFICATION_TYPE = U
NORAD_CAT_ID   = 25861
ELEMENT_SET_NO = 999
REV_AT_EPOCH   = 43219
BSTAR          = .10895846E-3
MEAN_MOTION_DOT = .805E-5
MEAN_MOTION_DDOT = 0

CCSDS_OMM_VERS = 2.0
CREATION_DATE  = 
ORIGINATOR     = 

OBJECT_NAME    = DELTA 2 R/B
OBJECT_ID      = 1999-041E
CENTER_NAME    = EARTH
REF_FRAME      = TEME
TIME_SYSTEM    = UTC
MEAN_ELEMENT_THEORY = SGP/SGP4

EPOCH          = 2026-02-06T10:25:08.939136
MEAN_MOTION    = 14.11709923
ECCENTRICITY   = .0502358
INCLINATION    = 51.7644
RA_OF_ASC_NODE = 66.0936
ARG_OF_PERICENTER = 256.0893
MEAN_ANOMALY   = 98.3692

EPHEMERIS_TYPE = 0
CLASSIFICATION_TYPE = U
NORAD_CAT_ID   = 25876
ELEMENT_SET_NO = 999
REV_AT_EPOCH   = 35861
BSTAR          = .46257E-3
MEAN_MOTION_DOT = .2643E-4
MEAN_MOTION_DDOT = 0

CCSDS_OMM_VERS = 2.0
CREATION_DATE  = 
ORIGINATOR     = 

OBJECT_NAME    = HELIOS 1B
OBJECT_ID      = 1999-064A
CENTER_NAME    = EARTH
REF_FRAME      = TEME
TIME_SYSTEM    = UTC
MEAN_ELEMENT_THEORY = SGP/SGP4

EPOCH          = 2026-02-06T04:01:53.451264
MEAN_MOTION    = 14.87566587
ECCENTRICITY   = .00019451
INCLINATION    = 98.1727
RA_OF_ASC_NODE = 298.4809
ARG_OF_PERICENTER = 119.3807
MEAN_ANOMALY   = 240.7603

EPHEMERIS_TYPE = 0
CLASSIFICATION_TYPE = U
NORAD_CAT_ID   = 25977
ELEMENT_SET_NO = 999
REV_AT_EPOCH   = 68057
BSTAR          = .27577846E-3
MEAN_MOTION_DOT = .2446E-4
MEAN_MOTION_DDOT = 0

CCSDS_OMM_VERS = 2.0
CREATION_DATE  = 
ORIGINATOR     = 

OBJECT_NAME    = TERRA
OBJECT_ID      = 1999-068A
CENTER_NAME    = EARTH
REF_FRAME      = TEME
TIME_SYSTEM    = UTC
MEAN_ELEMENT_THEORY = SGP/SGP4

EPOCH          = 2026-02-06T11:51:24.696576
MEAN_MOTION    = 14.60980442
ECCENTRICITY   = .0000948
INCLINATION    = 97.9659
RA_OF_ASC_NODE = 92.1100
ARG_OF_PERICENTER = 289.1312
MEAN_ANOMALY   = 179.4132

EPHEMERIS_TYPE = 0
CLASSIFICATION_TYPE = U
NORAD_CAT_ID   = 25994
ELEMENT_SET_NO = 999
REV_AT_EPOCH   = 39052
BSTAR          = .13844E-3
MEAN_MOTION_DOT = .634E-5
MEAN_MOTION_DDOT = 0

CCSDS_OMM_VERS = 2.0
CREATION_DATE  = 
ORIGINATOR     = 

OBJECT_NAME    = SL-16 R/B
OBJECT_ID      = 2000-006B
CENTER_NAME    = EARTH
REF_FRAME      = TEME
TIME_SYSTEM    = UTC
MEAN_ELEMENT_THEORY = SGP/SGP4

EPOCH          = 2026-02-06T08:39:14.094720
MEAN_MOTION    = 14.15820719
ECCENTRICITY   = .0018429
INCLINATION    = 71.0029
RA_OF_ASC_NODE = 163.7096
ARG_OF_PERICENTER = 234.2124
MEAN_ANOMALY   = 125.7286

EPHEMERIS_TYPE = 0
CLASSIFICATION_TYPE = U
NORAD_CAT_ID   = 26070
ELEMENT_SET_NO = 999
REV_AT_EPOCH   = 34412
BSTAR          = .29399E-4
MEAN_MOTION_DOT = .1E-6
MEAN_MOTION_DDOT = 0

CCSDS_OMM_VERS = 2.0
CREATION_DATE  = 
ORIGINATOR     = 

OBJECT_NAME    = TITAN 4B R/B
OBJECT_ID      = 2000-047B
CENTER_NAME    = EARTH
REF_FRAME      = TEME
TIME_SYSTEM    = UTC
MEAN_ELEMENT_THEORY = SGP/SGP4

EPOCH          = 2026-02-06T11:39:55.032768
MEAN_MOTION    = 15.09302791
ECCENTRICITY   = .0036998
INCLINATION    = 67.9895
RA_OF_ASC_NODE = 128.2366
ARG_OF_PERICENTER = 73.8297
MEAN_ANOMALY   = 286.6919

EPHEMERIS_TYPE = 0
CLASSIFICATION_TYPE = U
NORAD_CAT_ID   = 26474
ELEMENT_SET_NO = 999
REV_AT_EPOCH   = 38820
BSTAR          = .32148E-3
MEAN_MOTION_DOT = .5086E-4
MEAN_MOTION_DDOT = 0

CCSDS_OMM_VERS = 2.0
CREATION_DATE  = 
ORIGINATOR     = 

OBJECT_NAME    = ENVISAT
OBJECT_ID      = 2002-009A
CENTER_NAME    = EARTH
REF_FRAME      = TEME
TIME_SYSTEM    = UTC
MEAN_ELEMENT_THEORY = SGP/SGP4

EPOCH          = 2026-02-06T08:10:20.280000
MEAN_MOTION    = 14.39024999
ECCENTRICITY   = .0001302
INCLINATION    = 98.3677
RA_OF_ASC_NODE = 351.6950
ARG_OF_PERICENTER = 90.9033
MEAN_ANOMALY   = 61.6939

EPHEMERIS_TYPE = 0
CLASSIFICATION_TYPE = U
NORAD_CAT_ID   = 27386
ELEMENT_SET_NO = 999
REV_AT_EPOCH   = 25466
BSTAR          = .79936E-4
MEAN_MOTION_DOT = .204E-5
MEAN_MOTION_DDOT = 0

