SL-16 R/B               
1 25400U 98043G   26036.87734015  .00000114  00000+0  66582-4 0  9993
2 25400  98.8203 350.0262 0010880 105.0710 255.1674 14.26041992434450
SL-16 R/B               
1 25407U 98045B   26037.00016004 -.00000149  00000+0 -51121-4 0  9992
2 25407  71.0085 248.2164 0005258  67.2212 292.9467 14.16185391422611
ISS (ZARYA)             
1 25544U 98067A   26037.21207385  .00012979  00000+0  24775-3 0  9991
2 25544  51.6316 227.9611 0011199  69.2605 290.9582 15.48432747551451
CZ-4B R/B               
1 25732U 99025C   26037.12105303  .00000064  00000+0  51715-4 0  9999
2 25732  98.6688  82.1414 0038158  76.2960 297.9881 14.18259010383695
OKEAN-O                 
1 25860U 99039A   26037.15288845  .00000996  00000+0  13767-3 0  9990
2 25860  97.9511  97.3541 0001902  88.2198 271.9232 14.80283085429721
SL-16 R/B               
1 25861U 99039B   26037.16257426  .00000805  00000+0  10896-3 0  9992
2 25861  98.0033  96.2949 0014834   5.2630 354.8736 14.81686441432190
DELTA 2 R/B             
1 25876U 99041E   26037.43413124  .00002643  00000+0  46257-3 0  9992
2 25876  51.7644  66.0936 0502358 256.0893  98.3692 14.11709923358610
HELIOS 1B               
1 25977U 99064A   26037.16797976  .00002446  00000+0  27578-3 0  9995
2 25977  98.1727 298.4809 0001945 119.3807 240.7603 14.87566587680579
TERRA                   
1 25994U 99068A   26037.49403584  .00000634  00000+0  13844-3 0  9991
2 25994  97.9659  92.1100 0000948 289.1312 179.4132 14.60980442390520
SL-16 R/B               
1 26070U 00006B   26037.36057980  .00000010  00000+0  29399-4 0  9993
2 26070  71.0029 163.7096 0018429 234.2124 125.7286 14.15820719344123
TITAN 4B R/B            
1 26474U 00047B   26037.48605362  .00005086  00000+0  32148-3 0  9995
2 26474  67.9895 128.2366 0036998  73.8297 286.6919 15.09302791388207
ENVISAT                 
1 27386U 02009A   26037.34051250  .00000204  00000+0  79936-4 0  9998
2 27386  98.3677 351.6950 0001302  90.9033  61.6939 14.39024999254664
